{
  "type": "FeatureCollection",
  "features": [
    {
      "type": "Feature",
      "properties": {
        "norad_id": 66585,
        "name": "STARLINK-35963",
        "group": "last-30-days",
        "lat": 0.7523561789816545,
        "lon": -24.294069761840333,
        "alt_km": 382.7237285134079,
        "timestamp": "2025-12-06T16:45:41.516400+00:00",
        "meta_object_name": "STARLINK-35963",
        "meta_object_id": "2025-268AE",
        "meta_epoch": "2025-12-06T06:00:02.000160",
        "meta_mean_motion": 15.63556999,
        "meta_eccentricity": 0.00013791,
        "meta_inclination": 42.9999,
        "meta_ra_of_asc_node": 159.1841,
        "meta_arg_of_pericenter": 263.8043,
        "meta_mean_anomaly": 269.7814,
        "meta_ephemeris_type": 0,
        "meta_classification_type": "U",
        "meta_norad_cat_id": 66585,
        "meta_element_set_no": 999,
        "meta_rev_at_epoch": 362,
        "meta_bstar": -0.024089611,
        "meta_mean_motion_dot": -0.02017598,
        "meta_mean_motion_ddot": 0,
        "tle_line1": "1 66585U 25268AE  25340.25002315 -.02017598  00000+0 -24090-1 0  9994",
        "tle_line2": "2 66585  42.9999 159.1841 0001379 263.8043 269.7814 15.63556999  3625"
      },
      "geometry": {
        "type": "Point",
        "coordinates": [
          -24.294069761840333,
          0.7523561789816545
        ]
      }
    },
    {
      "type": "Feature",
      "properties": {
        "norad_id": 66586,
        "name": "TJS-21",
        "group": "last-30-days",
        "lat": -16.86600664282969,
        "lon": -8.239360261640192,
        "alt_km": 5292.047996624532,
        "timestamp": "2025-12-06T16:45:41.516413+00:00",
        "meta_object_name": "TJS-21",
        "meta_object_id": "2025-269A",
        "meta_epoch": "2025-12-05T05:53:45.339360",
        "meta_mean_motion": 2.00559462,
        "meta_eccentricity": 0.68051288,
        "meta_inclination": 63.2734,
        "meta_ra_of_asc_node": 163.1383,
        "meta_arg_of_pericenter": 269.8052,
        "meta_mean_anomaly": 18.6619,
        "meta_ephemeris_type": 0,
        "meta_classification_type": "U",
        "meta_norad_cat_id": 66586,
        "meta_element_set_no": 999,
        "meta_rev_at_epoch": 29,
        "meta_bstar": -0.017798837,
        "meta_mean_motion_dot": 1.125e-05,
        "meta_mean_motion_ddot": 0,
        "tle_line1": "1 66586U 25269A   25339.24566365  .00001125  00000+0 -17799-1 0  9997",
        "tle_line2": "2 66586  63.2734 163.1383 6805128 269.8052  18.6619  2.00559462   290"
      },
      "geometry": {
        "type": "Point",
        "coordinates": [
          -8.239360261640192,
          -16.86600664282969
        ]
      }
    },
    {
      "type": "Feature",
      "properties": {
        "norad_id": 66587,
        "name": "CZ-3B R/B",
        "group": "last-30-days",
        "lat": 47.18822481005495,
        "lon": -129.10696640419698,
        "alt_km": 31233.134901804315,
        "timestamp": "2025-12-06T16:45:41.516429+00:00",
        "meta_object_name": "CZ-3B R/B",
        "meta_object_id": "2025-269B",
        "meta_epoch": "2025-12-05T21:16:01.117056",
        "meta_mean_motion": 2.02575003,
        "meta_eccentricity": 0.75200619,
        "meta_inclination": 51.3669,
        "meta_ra_of_asc_node": 171.2323,
        "meta_arg_of_pericenter": 227.4915,
        "meta_mean_anomaly": 38.5744,
        "meta_ephemeris_type": 0,
        "meta_classification_type": "U",
        "meta_norad_cat_id": 66587,
        "meta_element_set_no": 999,
        "meta_rev_at_epoch": 31,
        "meta_bstar": 0.0017517289,
        "meta_mean_motion_dot": 0.00055981,
        "meta_mean_motion_ddot": -8.28456e-07,
        "tle_line1": "1 66587U 25269B   25339.88612404  .00055981 -82846-6  17517-2 0  9997",
        "tle_line2": "2 66587  51.3669 171.2323 7520061 227.4915  38.5744  2.02575003   313"
      },
      "geometry": {
        "type": "Point",
        "coordinates": [
          -129.10696640419698,
          47.18822481005495
        ]
      }
    },
    {
      "type": "Feature",
      "properties": {
        "norad_id": 66588,
        "name": "STARLINK-36076",
        "group": "last-30-days",
        "lat": -15.770683473244688,
        "lon": -149.26353910313804,
        "alt_km": 365.751910759539,
        "timestamp": "2025-12-06T16:45:41.516441+00:00",
        "meta_object_name": "STARLINK-36076",
        "meta_object_id": "2025-270A",
        "meta_epoch": "2025-12-06T06:00:02.000160",
        "meta_mean_motion": 15.69885986,
        "meta_eccentricity": 0.00016758,
        "meta_inclination": 42.999,
        "meta_ra_of_asc_node": 231.0759,
        "meta_arg_of_pericenter": 262.0494,
        "meta_mean_anomaly": 58.9445,
        "meta_ephemeris_type": 0,
        "meta_classification_type": "U",
        "meta_norad_cat_id": 66588,
        "meta_element_set_no": 999,
        "meta_rev_at_epoch": 335,
        "meta_bstar": -0.01772179,
        "meta_mean_motion_dot": -0.01934935,
        "meta_mean_motion_ddot": 0,
        "tle_line1": "1 66588U 25270A   25340.25002315 -.01934935  00000+0 -17722-1 0  9996",
        "tle_line2": "2 66588  42.9990 231.0759 0001675 262.0494  58.9445 15.69885986  3352"
      },
      "geometry": {
        "type": "Point",
        "coordinates": [
          -149.26353910313804,
          -15.770683473244688
        ]
      }
    },
    {
      "type": "Feature",
      "properties": {
        "norad_id": 66589,
        "name": "STARLINK-35447",
        "group": "last-30-days",
        "lat": -13.263585311246356,
        "lon": -146.28361723123808,
        "alt_km": 365.3926925192345,
        "timestamp": "2025-12-06T16:45:41.516451+00:00",
        "meta_object_name": "STARLINK-35447",
        "meta_object_id": "2025-270B",
        "meta_epoch": "2025-12-06T06:00:02.000160",
        "meta_mean_motion": 15.69885041,
        "meta_eccentricity": 0.00016876,
        "meta_inclination": 42.999,
        "meta_ra_of_asc_node": 231.0661,
        "meta_arg_of_pericenter": 264.6887,
        "meta_mean_anomaly": 60.0993,
        "meta_ephemeris_type": 0,
        "meta_classification_type": "U",
        "meta_norad_cat_id": 66589,
        "meta_element_set_no": 999,
        "meta_rev_at_epoch": 346,
        "meta_bstar": -0.017274017,
        "meta_mean_motion_dot": -0.01891479,
        "meta_mean_motion_ddot": 0,
        "tle_line1": "1 66589U 25270B   25340.25002315 -.01891479  00000+0 -17274-1 0  9994",
        "tle_line2": "2 66589  42.9990 231.0661 0001687 264.6887  60.0993 15.69885041  3468"
      },
      "geometry": {
        "type": "Point",
        "coordinates": [
          -146.28361723123808,
          -13.263585311246356
        ]
      }
    },
    {
      "type": "Feature",
      "properties": {
        "norad_id": 66590,
        "name": "STARLINK-35429",
        "group": "last-30-days",
        "lat": -14.524482556155863,
        "lon": -147.76821904534464,
        "alt_km": 365.55968692176157,
        "timestamp": "2025-12-06T16:45:41.516461+00:00",
        "meta_object_name": "STARLINK-35429",
        "meta_object_id": "2025-270C",
        "meta_epoch": "2025-12-06T06:00:02.000160",
        "meta_mean_motion": 15.69873188,
        "meta_eccentricity": 0.00014533,
        "meta_inclination": 42.9989,
        "meta_ra_of_asc_node": 231.0711,
        "meta_arg_of_pericenter": 263.0283,
        "meta_mean_anomaly": 59.8496,
        "meta_ephemeris_type": 0,
        "meta_classification_type": "U",
        "meta_norad_cat_id": 66590,
        "meta_element_set_no": 999,
        "meta_rev_at_epoch": 346,
        "meta_bstar": -0.017134825,
        "meta_mean_motion_dot": -0.01876929,
        "meta_mean_motion_ddot": 0,
        "tle_line1": "1 66590U 25270C   25340.25002315 -.01876929  00000+0 -17135-1 0  9995",
        "tle_line2": "2 66590  42.9989 231.0711 0001453 263.0283  59.8496 15.69873188  3461"
      },
      "geometry": {
        "type": "Point",
        "coordinates": [
          -147.76821904534464,
          -14.524482556155863
        ]
      }
    },
    {
      "type": "Feature",
      "properties": {
        "norad_id": 66591,
        "name": "STARLINK-36058",
        "group": "last-30-days",
        "lat": -11.995360919939275,
        "lon": -144.81550111751383,
        "alt_km": 365.2450852941183,
        "timestamp": "2025-12-06T16:45:41.516470+00:00",
        "meta_object_name": "STARLINK-36058",
        "meta_object_id": "2025-270D",
        "meta_epoch": "2025-12-06T06:00:02.000160",
        "meta_mean_motion": 15.69884526,
        "meta_eccentricity": 0.00017215,
        "meta_inclination": 42.999,
        "meta_ra_of_asc_node": 231.0615,
        "meta_arg_of_pericenter": 266.971,
        "meta_mean_anomaly": 59.7366,
        "meta_ephemeris_type": 0,
        "meta_classification_type": "U",
        "meta_norad_cat_id": 66591,
        "meta_element_set_no": 999,
        "meta_rev_at_epoch": 335,
        "meta_bstar": -0.017293992,
        "meta_mean_motion_dot": -0.0189341,
        "meta_mean_motion_ddot": 0,
        "tle_line1": "1 66591U 25270D   25340.25002315 -.01893410  00000+0 -17294-1 0  9996",
        "tle_line2": "2 66591  42.9990 231.0615 0001721 266.9710  59.7366 15.69884526  3353"
      },
      "geometry": {
        "type": "Point",
        "coordinates": [
          -144.81550111751383,
          -11.995360919939275
        ]
      }
    }
  ]
}